{"fetched_at":"2026-03-29T16:36:15Z","count":15609,"tles":[{"name":"CONNECTA IOT-14","line1":"1 67401U 26004AQ  26087.93263583  .00004052  00000+0  20242-3 0  9995","line2":"2 67401  97.4517  88.1514 0008031 258.1145 101.9188 15.18010568 11586","category":"Other"}]}